{"type":"FeatureCollection","name":"Natural Earth Baltic land 1:50m, clipped and simplified","bbox":[9.0,53.0,31.0,66.0],"features":[{"type":"Feature","properties":{"source":"Natural Earth","scale":"1:50m","publicDomain":true},"geometry":{"type":"MultiPolygon","coordinates":[[[[13.364355,54.24585],[13.190039,54.325635],[13.156348,54.396924],[13.17666,54.544238],[13.231445,54.582764],[13.239941,54.638428],[13.336816,54.697119],[13.422754,54.699316],[13.450098,54.649609],[13.491211,54.615381],[13.657617,54.55957],[13.670703,54.535449],[13.580469,54.463965],[13.601855,54.425146],[13.70918,54.382715],[13.73418,54.31543],[13.707324,54.281152],[13.594922,54.338184],[13.482031,54.337402],[13.414551,54.249561],[13.364355,54.24585]]],[[[11.233594,54.50127],[11.282813,54.417969],[11.129297,54.416016],[11.070703,54.456006],[11.011719,54.466162],[11.043457,54.515479],[11.084961,54.533398],[11.233594,54.50127]]],[[[11.680371,54.653711],[11.585938,54.662451],[11.457422,54.628857],[11.035547,54.773096],[11.041699,54.893359],[11.058594,54.940576],[11.258496,54.951807],[11.361426,54.89165],[11.538379,54.82959],[11.658105,54.833154],[11.739551,54.807422],[11.758984,54.767676],[11.765918,54.679443],[11.680371,54.653711]]],[[[10.346973,54.905957],[10.413672,54.896826],[10.504883,54.860547],[10.417285,54.837158],[10.340527,54.858936],[10.199902,54.962744],[10.265527,54.948828],[10.346973,54.905957]]],[[[10.856738,55.052197],[10.925,55.157861],[10.951074,55.156201],[10.920801,55.062109],[10.765234,54.799658],[10.734082,54.750732],[10.689746,54.745068],[10.62168,54.851416],[10.856738,55.052197]]],[[[9.830371,55.058252],[9.998828,54.986475],[10.06123,54.886377],[9.957129,54.872461],[9.903906,54.896631],[9.80625,54.906006],[9.771191,55.059912],[9.830371,55.058252]]],[[[12.161719,54.974805],[12.258789,55.021094],[12.274023,55.064111],[12.310059,55.040918],[12.469531,55.01748],[12.549219,54.965771],[12.511035,54.950879],[12.35752,54.961816],[12.184473,54.89248],[12.118848,54.914404],[12.161719,54.974805]]],[[[15.132617,55.144531],[15.137109,55.087158],[15.087695,55.021875],[15.050781,55.004932],[14.885547,55.032959],[14.68418,55.102246],[14.713672,55.238037],[14.765332,55.296729],[15.132617,55.144531]]],[[[10.785254,55.133398],[10.623828,55.052441],[10.442773,55.048779],[9.98877,55.163184],[9.967383,55.205469],[9.930078,55.228906],[9.858984,55.357227],[9.860645,55.515479],[10.286133,55.61084],[10.353613,55.598975],[10.424023,55.560352],[10.505078,55.558057],[10.622754,55.612842],[10.645117,55.609814],[10.819238,55.321875],[10.785352,55.269775],[10.808398,55.203027],[10.785254,55.133398]]],[[[12.243457,55.537891],[12.215039,55.466504],[12.275391,55.414258],[12.385156,55.385645],[12.413086,55.286182],[12.322461,55.237109],[12.089941,55.188135],[12.065527,55.069922],[12.073047,54.976758],[12.050391,54.815332],[11.862305,54.772607],[11.740918,54.915332],[11.739844,54.972461],[11.653809,55.186914],[11.475879,55.211523],[11.286328,55.204443],[11.170703,55.328613],[11.189746,55.465625],[11.128027,55.534766],[11.120996,55.600732],[11.008789,55.644434],[10.978906,55.721533],[11.049609,55.740234],[11.224414,55.731201],[11.322266,55.752539],[11.463672,55.879297],[11.474707,55.943457],[11.627734,55.956885],[11.695898,55.90791],[11.682227,55.829492],[11.690918,55.729004],[11.819727,55.697656],[11.885352,55.807959],[11.92207,55.828076],[11.93457,55.895898],[11.912793,55.937305],[11.866406,55.968164],[12.039648,56.052148],[12.218945,56.118652],[12.323242,56.122119],[12.578711,56.064062],[12.608398,56.033008],[12.524805,55.918457],[12.56875,55.785059],[12.571191,55.684961],[12.507031,55.636621],[12.320605,55.587842],[12.243457,55.537891]]],[[[12.62002,55.679346],[12.665723,55.596533],[12.550879,55.55625],[12.520313,55.6146],[12.599219,55.680225],[12.62002,55.679346]]],[[[10.547168,55.991943],[10.661719,55.877588],[10.590332,55.765088],[10.526953,55.783789],[10.520313,55.848486],[10.544336,55.906592],[10.516113,55.958545],[10.547168,55.991943]]],[[[16.630371,56.876855],[16.727734,56.902002],[17.025391,57.345068],[17.117676,57.319824],[17.050391,57.280469],[17.053516,57.208008],[16.883691,56.985205],[16.838281,56.840527],[16.778027,56.805225],[16.528516,56.290527],[16.477148,56.240186],[16.431641,56.24375],[16.40127,56.310889],[16.394141,56.483643],[16.412305,56.568994],[16.630371,56.876855]]],[[[11.174512,57.3229],[11.011426,57.229102],[10.873828,57.262256],[10.93457,57.308594],[11.085742,57.329932],[11.174512,57.3229]]],[[[18.485547,59.10459],[18.416211,59.029102],[18.349902,59.022607],[18.397559,59.089111],[18.485547,59.10459]]],[[[11.132617,64.976172],[11.246191,64.90791],[11.231445,64.865869],[11.179004,64.838037],[11.0625,64.8604],[10.83252,64.843115],[10.739844,64.870312],[10.813477,64.923242],[11.020996,64.978711],[11.132617,64.976172]]],[[[12.003223,65.679443],[11.967969,65.626514],[11.901855,65.595703],[11.77832,65.604541],[11.765137,65.630957],[11.800391,65.683887],[11.875391,65.705908],[11.972363,65.701562],[12.003223,65.679443]]],[[[12.778809,65.991699],[12.50957,65.901953],[12.429492,65.899072],[12.430176,65.939941],[12.476074,65.9771],[12.543243271085322,66.0],[12.778809,65.991699]]],[[[18.90791,57.39834],[18.784863,57.361084],[18.742871,57.323535],[18.699902,57.242725],[18.538477,57.196924],[18.477344,57.163037],[18.387207,57.087646],[18.340234,56.978223],[18.248926,56.931543],[18.146387,56.920508],[18.206543,57.010156],[18.285352,57.083203],[18.20957,57.133301],[18.163965,57.211719],[18.105078,57.271875],[18.151953,57.339062],[18.128906,57.44917],[18.136523,57.556641],[18.405176,57.756836],[18.537402,57.830566],[18.721875,57.863721],[18.805176,57.833154],[18.841113,57.900195],[18.900586,57.915479],[19.076465,57.835938],[18.99375,57.812109],[18.945117,57.741602],[18.813867,57.706201],[18.790918,57.483105],[18.90791,57.39834]]],[[[19.331445,57.962891],[19.156348,57.922607],[19.138379,57.860254],[19.086523,57.86499],[19.039258,57.911035],[19.134863,57.981348],[19.331445,57.962891]]],[[[23.323242,58.45083],[23.127148,58.435986],[23.035449,58.372314],[22.979883,58.363867],[22.757031,58.260889],[22.730273,58.230664],[22.498438,58.23623],[22.37168,58.217139],[22.269336,58.160742],[22.227344,58.051807],[22.152441,57.966797],[22.07627,57.936035],[21.996875,57.931348],[21.978027,57.963281],[21.985547,57.995166],[22.187695,58.154346],[22.104395,58.17168],[22.03457,58.213379],[21.882129,58.262354],[21.854492,58.30166],[21.924414,58.315869],[21.984082,58.38667],[21.862305,58.497168],[21.924414,58.514258],[22.001855,58.510254],[22.081348,58.478125],[22.168555,58.51582],[22.266602,58.507959],[22.328125,58.580859],[22.546973,58.627393],[22.688379,58.597021],[22.820117,58.621533],[22.964258,58.605713],[23.292871,58.483496],[23.323242,58.45083]]],[[[23.356445,58.575537],[23.343555,58.550342],[23.260352,58.53999],[23.063477,58.611084],[23.109082,58.659229],[23.16543,58.678125],[23.332813,58.648584],[23.356445,58.575537]]],[[[22.472656,58.712061],[22.478906,58.753809],[22.411035,58.863379],[22.307422,58.895459],[22.161914,58.898486],[22.05625,58.943604],[22.462598,58.974316],[22.50459,59.026465],[22.587207,59.081201],[22.649414,59.087109],[22.702246,59.074414],[22.725488,59.015088],[22.909863,58.991211],[22.981641,58.919824],[23.008691,58.833936],[22.92373,58.826904],[22.841699,58.777441],[22.767285,58.820898],[22.661426,58.70918],[22.542188,58.68999],[22.472656,58.712061]]],[[[18.698438,59.534619],[18.623828,59.492188],[18.570312,59.437256],[18.545117,59.477832],[18.572363,59.52583],[18.620898,59.547803],[18.698438,59.534619]]],[[[18.508887,59.407959],[18.560254,59.394482],[18.617578,59.327051],[18.498633,59.291943],[18.414258,59.290332],[18.373047,59.179736],[18.285352,59.109375],[18.098145,59.062305],[17.829004,58.95459],[17.76543,58.965039],[17.669629,58.916211],[17.456738,58.858398],[17.347656,58.780518],[17.102832,58.71084],[16.978125,58.65415],[16.31582,58.663623],[16.214258,58.63667],[16.318066,58.62832],[16.39082,58.601855],[16.478027,58.612891],[16.788477,58.585254],[16.923828,58.492578],[16.824316,58.459619],[16.651953,58.434326],[16.769922,58.214258],[16.700098,58.160791],[16.694922,57.917529],[16.596973,57.912891],[16.555371,57.812256],[16.58623,57.760937],[16.583789,57.641748],[16.604199,57.568311],[16.652246,57.500684],[16.630859,57.430176],[16.475977,57.265137],[16.479492,57.187695],[16.52793,57.068164],[16.34873,56.709277],[16.216504,56.58999],[16.150684,56.50083],[15.99668,56.222607],[15.920313,56.167383],[15.82666,56.124951],[15.626563,56.185596],[15.509668,56.183008],[15.326563,56.15083],[15.051172,56.172217],[14.782031,56.161914],[14.713965,56.134131],[14.754785,56.033154],[14.655566,56.019922],[14.558594,56.048633],[14.401953,55.976758],[14.261914,55.887549],[14.215039,55.832617],[14.20293,55.72915],[14.341699,55.527734],[14.17373,55.396631],[14.07998,55.392187],[13.806348,55.428564],[13.321387,55.346387],[12.88584,55.411377],[12.940625,55.481592],[12.93877,55.533203],[12.978027,55.693799],[12.973926,55.748145],[12.941992,55.806055],[12.83457,55.881836],[12.592578,56.137598],[12.520996,56.245557],[12.471191,56.290527],[12.507031,56.292969],[12.706348,56.23501],[12.80166,56.263916],[12.656445,56.440576],[12.857422,56.452393],[12.919531,56.515576],[12.883691,56.617725],[12.717578,56.662842],[12.572656,56.823291],[12.421484,56.906396],[12.151855,57.226953],[12.053223,57.446973],[11.961523,57.426074],[11.885059,57.612695],[11.878711,57.679443],[11.734961,57.717676],[11.703223,57.973193],[11.549023,58.001221],[11.449316,58.118359],[11.431543,58.33999],[11.32998,58.380322],[11.248242,58.369141],[11.271582,58.475635],[11.223828,58.679932],[11.20791,58.866406],[11.147168,58.988623],[11.195801,59.078271],[11.295313,59.086865],[11.388281,59.036523],[11.386426,59.065723],[11.365918,59.104541],[10.834473,59.183936],[10.644922,59.389209],[10.631055,59.428174],[10.634375,59.60249],[10.604492,59.680029],[10.595313,59.764551],[10.533887,59.695801],[10.569531,59.587109],[10.49375,59.541504],[10.398145,59.519336],[10.407129,59.455664],[10.446387,59.443604],[10.45459,59.37749],[10.431348,59.279639],[10.243164,59.062061],[10.179395,59.009277],[10.083105,59.028809],[9.95957,58.968213],[9.842578,58.958496],[9.800195,59.027051],[9.635156,59.117773],[9.557227,59.112695],[9.696094,59.009717],[9.618457,58.946045],[9.309961,58.856836],[9.395801,58.805664],[9.322949,58.747559],[9.238672,58.739014],[9.19375,58.711865],[9.178125,58.675],[9.0,58.600079030123304],[9.0,63.61783645169139],[9.13584,63.593652],[9.158105,63.56626],[9.075879,63.500391],[9.08418,63.463428],[9.156055,63.459326],[9.323633,63.570361],[9.520703,63.585693],[9.696875,63.624561],[9.832227,63.52417],[9.936035,63.478857],[9.979199,63.395264],[10.020996,63.39082],[10.080566,63.432715],[10.340039,63.469336],[10.590918,63.447217],[10.760156,63.461279],[10.706738,63.536328],[10.673633,63.558008],[10.725293,63.625],[10.952539,63.698193],[11.117871,63.719189],[11.370703,63.804834],[11.307617,63.875732],[11.213867,63.878125],[11.175586,63.898877],[11.457617,64.002979],[11.429199,64.024512],[11.306641,64.048877],[11.075195,63.988135],[10.914258,63.921094],[11.047266,63.845215],[10.934863,63.770215],[10.33916,63.571045],[10.055078,63.512695],[9.924023,63.521777],[9.892773,63.576221],[9.832324,63.616504],[9.76748,63.699512],[9.657227,63.697314],[9.594629,63.678955],[9.567285,63.706152],[9.614746,63.794824],[9.708008,63.864893],[9.864453,63.917822],[9.939453,63.981738],[10.009961,64.083154],[10.23623,64.179639],[10.565625,64.418311],[10.833984,64.494482],[10.932324,64.577734],[11.09043,64.614551],[11.225391,64.679492],[11.331348,64.685937],[11.523828,64.744385],[11.63291,64.813916],[11.561719,64.818262],[11.296777,64.754785],[11.303516,64.829395],[11.349902,64.905908],[11.489355,64.97583],[12.159668,65.178955],[12.306543,65.085986],[12.508398,65.099414],[12.738379,65.214404],[12.915527,65.339258],[12.819824,65.31748],[12.511719,65.195312],[12.417578,65.184082],[12.363867,65.193311],[12.333984,65.240723],[12.263379,65.256104],[12.199609,65.245459],[12.133887,65.27915],[12.122168,65.362354],[12.272852,65.568164],[12.344824,65.630176],[12.627734,65.806152],[12.688867,65.902197],[12.816797,65.952881],[12.983008,65.941602],[13.033105,65.95625],[12.993461754158787,66.0],[31.0,66.0],[31.0,53.0],[9.0,53.0],[9.0,53.84242409867061],[9.205566,53.855957],[9.321973,53.813477],[9.585352,53.600488],[9.673145,53.565625],[9.783984,53.554639],[9.63125,53.600195],[9.312012,53.859131],[9.216406,53.891211],[9.0,53.920174440559975],[9.0,56.776240330792874],[9.06709,56.793848],[9.196387,56.70166],[9.254883,57.011719],[9.110449,57.043652],[9.0,57.01780429094293],[9.0,57.15333144891891],[9.298828,57.146533],[9.433594,57.174316],[9.554297,57.232471],[9.815137,57.478418],[9.962305,57.580957],[10.259082,57.617041],[10.533301,57.7354],[10.609961,57.736914],[10.480957,57.648682],[10.444629,57.562207],[10.537109,57.448535],[10.517578,57.379346],[10.524121,57.243213],[10.436914,57.172266],[10.338477,57.021338],[10.296094,56.999121],[10.282715,56.620508],[10.383594,56.554834],[10.490234,56.520508],[10.845898,56.521729],[10.926172,56.443262],[10.856445,56.295508],[10.753418,56.241992],[10.621191,56.2021],[10.538965,56.200342],[10.426953,56.276172],[10.31875,56.212891],[10.22666,56.005371],[10.183008,55.865186],[10.159375,55.853809],[10.107324,55.874463],[10.017383,55.876074],[9.903711,55.842822],[10.023633,55.761426],[9.999023,55.735547],[9.899023,55.707568],[9.810352,55.650977],[9.773242,55.608154],[9.661426,55.557471],[9.591113,55.493213],[9.670996,55.266406],[9.643262,55.204736],[9.504785,55.11626],[9.453711,55.039551],[9.572363,55.040527],[9.688184,55.000146],[9.732324,54.968018],[9.705273,54.92832],[9.745898,54.807178],[9.892285,54.780615],[10.022168,54.673926],[10.028809,54.581299],[9.868652,54.472461],[10.143457,54.488428],[10.212402,54.408936],[10.360449,54.43833],[10.731543,54.31626],[11.013379,54.37915],[11.064355,54.280518],[11.008594,54.181152],[10.810742,54.075146],[10.85459,54.009814],[10.917773,53.995312],[11.104297,54.00918],[11.399609,53.944629],[11.461133,53.964746],[11.700586,54.113525],[11.796289,54.145459],[12.111328,54.168311],[12.168652,54.225879],[12.296289,54.283789],[12.575391,54.467383],[13.028613,54.411035],[13.147461,54.282715],[13.448047,54.140869],[13.724219,54.153223],[13.822266,54.019043],[13.865527,53.853369],[13.950391,53.801367],[14.025,53.767432],[14.25,53.731885],[14.583496,53.639355],[14.552148,53.707324],[14.564941,53.753516],[14.558398,53.823193],[14.350879,53.85874],[14.172168,53.874365],[14.04834,53.863086],[13.925781,53.879053],[13.902148,53.938965],[13.92168,53.996631],[13.827148,54.05957],[13.827734,54.127246],[14.249316,53.931934],[14.38418,53.924707],[14.715723,54.018311],[15.288379,54.139893],[15.9,54.253955],[16.186328,54.290381],[16.375586,54.436865],[16.559766,54.553809],[16.885449,54.596387],[17.007031,54.651855],[17.261914,54.729541],[17.842969,54.816699],[18.085645,54.83584],[18.323438,54.838184],[18.759277,54.68457],[18.799609,54.63335],[18.67832,54.665283],[18.501563,54.741504],[18.43623,54.744727],[18.587109,54.512891],[18.669629,54.430908],[18.836426,54.36958],[18.97627,54.348926],[19.407129,54.386084],[19.560156,54.434619],[19.758496,54.544824],[19.858887,54.633838],[19.944141,54.75],[19.974512,54.921191],[20.107617,54.956494],[20.39668,54.95127],[20.520313,54.994873],[20.678906,55.102637],[20.845703,55.232031],[21.014063,55.401953],[21.057617,55.476807],[21.087891,55.583105],[21.114844,55.616504],[21.103906,55.487744],[21.031738,55.350488],[20.859375,55.183643],[20.594824,54.982373],[20.8875,54.909473],[20.995898,54.902686],[21.188867,54.935205],[21.236328,55.271191],[21.201074,55.343799],[21.237891,55.455029],[21.171094,55.617725],[21.061914,55.813428],[21.053809,56.022949],[21.014941,56.258936],[21.031445,56.636572],[21.071289,56.82373],[21.257422,56.932764],[21.350781,57.017676],[21.405078,57.131006],[21.421484,57.23584],[21.45918,57.322461],[21.728711,57.570996],[21.942383,57.597852],[22.55459,57.724268],[22.648633,57.595361],[23.037793,57.39209],[23.136816,57.323828],[23.287305,57.089746],[23.647754,56.971045],[23.931152,57.008496],[24.28125,57.172314],[24.382617,57.250049],[24.403223,57.325],[24.362988,57.645312],[24.301563,57.784131],[24.332031,57.909766],[24.463867,58.105957],[24.4875,58.261621],[24.549707,58.30459],[24.529102,58.354248],[24.392188,58.386084],[24.336914,58.381396],[24.235645,58.289551],[24.114844,58.266113],[24.010938,58.306641],[23.767578,58.36084],[23.706055,58.433008],[23.691504,58.505615],[23.562793,58.57583],[23.509277,58.658545],[23.530664,58.71626],[23.647461,58.75415],[23.680762,58.787158],[23.503613,58.789844],[23.432031,58.920654],[23.489648,58.960498],[23.515039,58.999219],[23.467773,59.032178],[23.480176,59.069678],[23.516992,59.107568],[23.494434,59.195654],[23.78252,59.275146],[24.083398,59.291895],[24.053613,59.372314],[24.175391,59.375928],[24.380371,59.472656],[24.583594,59.455664],[24.877539,59.52207],[25.44375,59.521143],[25.520898,59.559473],[25.509277,59.639014],[25.79375,59.634668],[26.46084,59.553906],[26.625,59.553906],[26.852051,59.471777],[26.974707,59.450635],[27.33584,59.450488],[27.892578,59.414209],[28.001855,59.469824],[28.063965,59.554004],[28.013965,59.724756],[28.058008,59.781543],[28.131152,59.786523],[28.2125,59.724658],[28.33457,59.692529],[28.42373,59.734082],[28.453906,59.814258],[28.518164,59.849561],[28.603906,59.818066],[28.747656,59.806689],[28.947266,59.82876],[29.079102,59.960986],[29.147266,59.999756],[29.669727,59.955664],[30.122559,59.873584],[30.156836,59.904297],[30.172656,59.957129],[29.976758,60.026367],[29.872266,60.12085],[29.721191,60.195312],[29.569336,60.201855],[29.37041,60.175928],[29.069141,60.191455],[28.812695,60.331543],[28.643164,60.375293],[28.522266,60.482959],[28.491602,60.540137],[28.622461,60.491602],[28.650586,60.610986],[28.512793,60.677295],[28.179297,60.570996],[27.761621,60.532861],[27.669336,60.498975],[27.525098,60.490771],[27.462402,60.464844],[27.205273,60.543457],[27.075586,60.525146],[26.951172,60.471484],[26.721484,60.455078],[26.534668,60.412891],[26.519727,60.471582],[26.551172,60.545996],[26.601758,60.595605],[26.606445,60.62793],[26.569336,60.624561],[26.495801,60.551807],[26.456445,60.466797],[26.377734,60.424072],[26.204688,60.406592],[26.036035,60.474902],[25.955957,60.474219],[26.040234,60.371582],[26.03584,60.341504],[25.945898,60.346777],[25.758008,60.267529],[25.71543,60.267432],[25.656445,60.333203],[25.455762,60.26123],[25.267871,60.24834],[25.155859,60.194092],[24.600488,60.114258],[24.517969,60.046289],[24.445605,60.021289],[24.342578,60.042334],[23.721777,59.965674],[23.463574,59.98623],[23.181445,59.844922],[23.021289,59.816016],[22.963867,59.826367],[23.009766,59.868799],[23.115723,59.912695],[23.188477,59.972217],[23.198438,60.021826],[23.080176,60.047266],[22.994141,60.098535],[22.911719,60.209717],[22.86709,60.21582],[22.819141,60.101367],[22.749805,60.057275],[22.646191,60.028027],[22.462695,60.029199],[22.438574,60.090283],[22.471094,60.146973],[22.442676,60.156885],[22.469727,60.201318],[22.564258,60.205518],[22.589941,60.228369],[22.587988,60.255664],[22.516699,60.262744],[22.512305,60.281348],[22.584961,60.380566],[22.25791,60.400928],[21.933984,60.500293],[21.854297,60.50542],[21.805273,60.594141],[21.727148,60.58291],[21.613281,60.530957],[21.436035,60.596387],[21.410645,60.636963],[21.404004,60.767432],[21.360547,60.96748],[21.377734,61.059229],[21.479102,61.170508],[21.513477,61.281201],[21.521191,61.41084],[21.501758,61.45498],[21.506641,61.484326],[21.565039,61.484326],[21.498242,61.551953],[21.522461,61.567139],[21.592383,61.568213],[21.605957,61.591553],[21.551855,61.666846],[21.545605,61.702734],[21.384863,61.914941],[21.255957,61.989648],[21.353711,62.223828],[21.343359,62.277393],[21.323438,62.342578],[21.165625,62.414062],[21.103613,62.622949],[21.143848,62.73999],[21.195703,62.790527],[21.45752,62.95],[21.473535,63.033252],[21.650977,63.039307],[21.568652,63.113721],[21.545117,63.204297],[21.800391,63.237695],[21.895703,63.210254],[22.120313,63.244141],[22.319727,63.310449],[22.316211,63.345654],[22.243262,63.437939],[22.273242,63.454785],[22.345996,63.442383],[22.312598,63.472559],[22.318652,63.504395],[22.398047,63.491162],[22.527637,63.57998],[22.532324,63.647852],[22.75625,63.68335],[23.014453,63.821826],[23.24873,63.896143],[23.493945,64.034473],[23.598926,64.040918],[23.65293,64.13418],[23.861426,64.258252],[23.924805,64.274121],[24.022266,64.385986],[24.27832,64.515283],[24.440625,64.680127],[24.530176,64.738672],[24.55791,64.801025],[24.657617,64.806299],[24.747559,64.8521],[24.942188,64.884033],[25.134277,64.875195],[25.214258,64.853467],[25.288184,64.860352],[25.280762,64.916406],[25.228027,64.951025],[25.271094,64.984277],[25.372656,65.009473],[25.340234,65.098633],[25.255859,65.143262],[25.297852,65.243213],[25.30791,65.352734],[25.347852,65.479248],[25.241797,65.546289],[24.839355,65.660352],[24.674902,65.670703],[24.581543,65.757129],[24.628027,65.85918],[24.591602,65.85835],[24.532617,65.822021],[24.404297,65.780469],[24.2375,65.812354],[23.890527,65.782227],[23.691406,65.828516],[23.59209,65.805322],[23.221094,65.786133],[23.102344,65.735352],[22.919336,65.786475],[22.746582,65.870947],[22.620313,65.806543],[22.538574,65.794336],[22.465137,65.852637],[22.400977,65.862109],[22.366309,65.842676],[22.335938,65.791162],[22.287598,65.750635],[22.254004,65.597559],[22.08623,65.610938],[22.096289,65.583789],[22.147559,65.552881],[22.086719,65.530225],[21.920117,65.532373],[21.903125,65.50835],[21.95,65.470361],[21.87959,65.424023],[21.680664,65.403369],[21.565527,65.408105],[21.532617,65.386572],[21.523438,65.358594],[21.545215,65.331152],[21.612695,65.299121],[21.60918,65.261377],[21.566895,65.254541],[21.446875,65.32085],[21.410352,65.317432],[21.545996,65.206982],[21.580664,65.160791],[21.573926,65.125781],[21.424902,65.012695],[21.195898,64.876904],[21.138184,64.808691],[21.279297,64.724707],[21.393848,64.544336],[21.519629,64.463086],[21.465039,64.37959],[21.255762,64.29917],[21.018457,64.177979],[20.762695,63.867822],[20.677637,63.82627],[20.453711,63.77373],[20.371387,63.7229],[20.204688,63.662451],[19.913672,63.610547],[19.781641,63.538184],[19.72207,63.46333],[19.655762,63.458008],[19.502344,63.509033],[19.494629,63.424365],[19.354297,63.47749],[19.288086,63.42876],[19.236328,63.347363],[19.034375,63.237744],[18.816699,63.257471],[18.792285,63.238135],[18.850195,63.224121],[18.858984,63.206592],[18.606445,63.178271],[18.530664,63.063525],[18.344238,63.032129],[18.312891,62.996387],[18.502051,62.988867],[18.463086,62.89585],[18.248047,62.849072],[18.17002,62.789355],[18.074414,62.790674],[18.093555,62.836035],[17.951074,62.833887],[17.906641,62.886768],[17.87959,62.873193],[17.974414,62.721045],[17.903027,62.659473],[18.006543,62.62627],[18.037305,62.600537],[17.94707,62.578467],[17.834473,62.502734],[17.717773,62.500879],[17.646387,62.450879],[17.570605,62.451025],[17.410254,62.508398],[17.378418,62.462793],[17.37334,62.426514],[17.429004,62.334717],[17.535254,62.263672],[17.633691,62.233008],[17.562891,62.212305],[17.510156,62.166309],[17.374512,61.866309],[17.417285,61.740674],[17.46543,61.684473],[17.33457,61.691699],[17.196387,61.724561],[17.215625,61.656348],[17.130762,61.575732],[17.164258,61.458301],[17.137988,61.381689],[17.17793,61.357617],[17.199609,61.311963],[17.163867,61.278271],[17.179785,61.249268],[17.212891,60.98584],[17.20293,60.951855],[17.278906,60.812158],[17.250977,60.700781],[17.359863,60.64082],[17.555469,60.642725],[17.593066,60.627686],[17.661133,60.535156],[17.742188,60.539307],[17.955762,60.589795],[18.011328,60.511426],[18.1625,60.40791],[18.250488,60.361523],[18.4,60.337109],[18.55752,60.253564],[18.535449,60.152881],[18.601172,60.119238],[18.787012,60.079492],[18.852734,60.025879],[18.933203,59.942285],[18.99043,59.827783],[18.970508,59.757227],[18.71875,59.657373],[18.578125,59.565771],[18.338086,59.476855],[18.276465,59.437646],[18.216895,59.420508],[18.163574,59.430371],[17.964258,59.359375],[17.979785,59.329053],[18.132617,59.316211],[18.210547,59.331445],[18.270508,59.367139],[18.395801,59.368604],[18.508887,59.407959]]],[[[20.490137,60.074902],[20.569141,60.069629],[20.611328,60.040674],[20.603418,60.016943],[20.521777,60.01167],[20.4875,60.032764],[20.397949,60.040674],[20.490137,60.074902]]],[[[21.648145,60.140869],[21.62832,60.107812],[21.540625,60.0979],[21.486035,60.126807],[21.567969,60.172314],[21.634082,60.168994],[21.648145,60.140869]]],[[[21.833203,60.140527],[21.733105,60.106152],[21.69502,60.114355],[21.704785,60.172314],[21.764258,60.198828],[21.864355,60.201807],[21.833203,60.140527]]],[[[19.519043,60.18457],[19.551367,60.243848],[19.628809,60.246094],[19.66748,60.164746],[19.599805,60.162695],[19.579883,60.135059],[19.536523,60.144971],[19.519043,60.18457]]],[[[20.239551,60.283008],[20.258887,60.261279],[20.194727,60.193555],[20.125488,60.200879],[20.042578,60.180664],[20.033984,60.093555],[19.799805,60.081738],[19.745996,60.098975],[19.672266,60.233008],[19.686914,60.267627],[19.779004,60.285547],[19.785254,60.213379],[19.847656,60.220557],[19.871582,60.301611],[19.787793,60.354053],[19.823047,60.390186],[19.888281,60.405811],[19.944531,60.35752],[20.087402,60.353418],[20.184082,60.29375],[20.239551,60.283008]]],[[[22.346289,60.202832],[22.360547,60.165576],[22.258301,60.165625],[22.209375,60.196973],[22.188086,60.236768],[22.077148,60.286328],[22.125879,60.355859],[22.175098,60.370752],[22.301758,60.347559],[22.35498,60.355859],[22.415527,60.303369],[22.312891,60.269971],[22.305762,60.228564],[22.346289,60.202832]]],[[[21.827246,60.469922],[21.906836,60.438477],[21.950293,60.401709],[21.907813,60.393164],[21.994238,60.33667],[21.921484,60.332275],[21.818652,60.381836],[21.805664,60.401221],[21.845996,60.412451],[21.819336,60.452295],[21.827246,60.469922]]],[[[21.214551,60.603857],[21.268066,60.638281],[21.30127,60.595557],[21.450879,60.52959],[21.436914,60.483057],[21.3,60.479785],[21.244336,60.525977],[21.214551,60.603857]]],[[[21.367188,63.207227],[21.309766,63.162695],[21.253418,63.152002],[21.149316,63.199463],[21.083887,63.277539],[21.236328,63.277734],[21.217773,63.241309],[21.228516,63.222656],[21.287109,63.227783],[21.366016,63.261768],[21.421973,63.245898],[21.415625,63.197363],[21.367188,63.207227]]],[[[24.997559,65.038721],[24.891797,65.02627],[24.848242,64.991016],[24.698926,64.957813],[24.578613,64.978564],[24.576563,65.042871],[24.651172,65.073975],[24.786035,65.086426],[24.970605,65.055322],[24.997559,65.038721]]]]}}]}
